ONEWEB-0613             
1 56071U 23043AB  23364.72502220  .00000102  00000+0  23645-3 0  9994
2 56071  87.8999  78.2600 0001918 116.7870 243.3457 13.15550924 38175
ONEWEB-0630             
1 56072U 23043AC  23365.25268011 -.00000012  00000+0 -65248-4 0  9999
2 56072  87.8996  78.1516 0002110 113.9396 246.1956 13.15547812 39140
ONEWEB-0632             
1 56073U 23043AD  23365.78033771  .00013285  00000+0  35245-1 0  9996
2 56073  87.9006  78.0671 0002523 172.9679 187.1487 13.15468408 39216
ONEWEB-0633             
1 56074U 23043AE  23365.77398954 -.00000131  00000+0 -38282-3 0  9997
2 56074  87.8994  78.0539 0002384 112.1541 247.9842 13.15548652 39191
ONEWEB-0634             
1 56075U 23043AF  23364.77098387 -.00000086  00000+0 -26143-3 0  9996
2 56075  87.9002  78.2537 0002125  97.7860 262.3511 13.15547404 38140
ONEWEB-0635             
1 56076U 23043AG  23365.29862272  .00000034  00000+0  55648-4 0  9991
2 56076  87.8999  78.2083 0001406 116.8987 243.2287 13.15546306 39155
ONEWEB-0636             
1 56077U 23043AH  23365.21465400  .00000176  00000+0  43283-3 0  9994
2 56077  87.9000  78.1934 0001385 109.2194 250.9086 13.15548865 39127
ONEWEB-0637             
1 56078U 23043AJ  23365.74070914  .00000177  00000+0  43648-3 0  9991
2 56078  87.8998  78.0633 0001287 111.7906 248.3362 13.15550163 39210
